satname,norad_id,inclination_deg,eccentricity,mean_motion_rev_per_day,perigee_km,apogee_km,l1,l2
STARLINK-1452,45669,53.0349,0.0004527,15.38587374,447.19449048234037,453.37694441071653,1 45669U 20035N   26032.05955987  .00095761  00000+0  24548-2 0  9993,2 45669  53.0349 195.4470 0004527 232.1865 127.8728 15.38587374313712
STARLINK-1453,45670,53.0497,0.0005002,15.44622759,429.080071749705,435.89341974495073,1 45670U 20035P   26032.00003472  .00096906  00000+0  20317-2 0  9995,2 45670  53.0497 189.0218 0005002 211.8660 230.7783 15.44622759  5833
STARLINK-1454,45671,53.0539,6.3e-05,15.43208693,436.2172325292886,437.0758952583392,1 45671U 20035Q   26032.12673581  .00081624  00000+0  18007-2 0  9997,2 45671  53.0539 227.5729 0000630  78.3610 281.7466 15.43208693313257
STARLINK-1456,45673,53.0511,0.0005336,15.42076366,436.34401312483897,443.6203098940023,1 45673U 20035S   26032.00003472  .00142668  00000+0  32350-2 0  9995,2 45673  53.0511 221.4900 0005336 158.3464 317.1208 15.42076366  5689
STARLINK-1457,45674,53.0493,0.0002622,15.67236725,365.0450967259212,368.5821488325073,1 45674U 20035T   26032.58334490  .00166978  00000+0  14997-2 0  9993,2 45674  53.0493 201.8645 0002622 295.4036  32.1369 15.67236725  5877
STARLINK-1458,45675,53.0534,8.27e-05,15.37586315,452.68424313339165,453.8141544106693,1 45675U 20035U   26032.58334490  .00023163  00000+0  62735-3 0  9996,2 45675  53.0534 226.2778 0000827 113.8806 116.8360 15.37586315  5832
STARLINK-1460,45676,53.0551,0.0001286,15.06391817,546.3460347184227,548.1272408180575,1 45676U 20035V   26031.81239108  .00001170  00000+0  97466-4 0  9996,2 45676  53.0551 232.1669 0001286  95.3668 264.7468 15.06391817313131
STARLINK-1392,45677,53.0534,0.0001302,15.06411503,546.2746273322864,548.0779789164199,1 45677U 20035W   26031.82344273  .00003508  00000+0  25423-3 0  9998,2 45677  53.0534 232.1170 0001302  92.5134 267.6005 15.06411503313174
STARLINK-1394,45679,53.0523,0.0006051,15.41807476,436.6487312862291,444.90097841296756,1 45679U 20035Y   26032.40280368  .00014638  00000+0  34910-3 0  9996,2 45679  53.0523 209.5071 0006051 159.4229 200.7020 15.41807476313549
STARLINK-1402,45685,53.0498,0.0007779,15.39054315,443.59375360402555,454.2152647840303,1 45685U 20035AE  26032.58334490  .00068777  00000+0  17444-2 0  9993,2 45685  53.0498 194.5816 0007779 150.9440  11.4159 15.39054315  5918
STARLINK-1404,45686,53.1615,0.0001532,15.29376184,476.6256290440633,478.7262501287514,1 45686U 20035AF  26032.58334490 -.00010448  00000+0 -34999-3 0  9993,2 45686  53.1615 217.3456 0001532  85.2567 344.8809 15.29376184  5832
STARLINK-1413,45689,53.1566,0.0001354,15.29396952,476.6856064354952,478.54214377247354,1 45689U 20035AJ  26032.58334490  .00009294  00000+0  33360-3 0  9992,2 45689  53.1566 217.2773 0001354  90.3195 275.6612 15.29396952  5688
STARLINK-1417,45693,53.0498,0.0007481,15.10247312,530.2730890663361,540.617190664002,1 45693U 20035AN  26032.22880278  .00016546  00000+0  10149-2 0  9995,2 45693  53.0498 219.2781 0007481 130.7670 229.3971 15.10247312313389
STARLINK-1420,45695,53.0541,9.79e-05,15.46614721,425.9714749973973,427.3038498763026,1 45695U 20035AQ  26032.58334490  .00011773  00000+0  24072-3 0  9994,2 45695  53.0541 195.4758 0000979  63.6312 102.6618 15.46614721  5730
STARLINK-1422,45696,53.1476,9.87e-05,15.28115503,480.7690348436836,482.1231165428253,1 45696U 20035AR  26032.58334490  .00073380  00000+0  26281-2 0  9990,2 45696  53.1476 217.2313 0000987 122.0647 230.4747 15.28115503  5488
STARLINK-1351,45697,53.0552,8.26e-05,15.43204171,436.0969744214726,437.22277886549455,1 45697U 20035AS  26032.58334490  .00076975  00000+0  16999-2 0  9999,2 45697  53.0552 194.6155 0000826  80.2623 251.5328 15.43204171  5842
STARLINK-1398,45699,53.047,0.0003893,15.76245537,338.4734005516275,343.7049900672946,1 45699U 20035AU  26032.58334490  .00125075  00000+0  77295-3 0  9994,2 45699  53.0470 121.7125 0003893 314.2339 117.3051 15.76245537  5953
STARLINK-1400,45700,53.0542,8.15e-05,15.43814254,434.3091222717394,435.4196414969874,1 45700U 20035AV  26032.58334490  .00081078  00000+0  17527-2 0  9992,2 45700  53.0542 195.4608 0000815   3.1663  27.8759 15.43814254  5687
STARLINK-1403,45701,53.0571,0.0001249,15.06392595,546.3692744201962,548.0992321592685,1 45701U 20035AW  26032.44912845 -.00001005  00000+0 -48569-4 0  9990,2 45701  53.0571 199.3095 0001249  90.1346 269.9786 15.06392595313688
STARLINK-1407,45703,53.037,0.0010305,15.53714109,398.9021905142008,412.8840766194826,1 45703U 20035AY  26032.48427804  .00083838  00000+0  12785-2 0  9993,2 45703  53.0370 131.2549 0010305 336.2062  23.8470 15.53714109314654
STARLINK-1411,45706,53.0465,0.0002297,15.55547741,399.00381420912163,402.1179480157043,1 45706U 20035BB  26032.33534101  .00061859  00000+0  88821-3 0  9993,2 45706  53.0465 158.1631 0002297 342.7449  17.3483 15.55547741314250
STARLINK-1423,45710,53.0537,8.88e-05,15.45622101,428.9462419371657,430.1552872841612,1 45710U 20035BF  26032.58334490  .00085587  00000+0  17385-2 0  9994,2 45710  53.0537 195.0490 0000888  74.1612 229.1423 15.45622101  5785
STARLINK-1433,45711,53.0531,8.21e-05,15.47526409,423.4063677358581,424.52327285474985,1 45711U 20035BG  26032.47277821  .00110919  00000+0  21007-2 0  9991,2 45711  53.0531 195.1581 0000821 355.5692   4.5308 15.47526409313744
STARLINK-1434,45712,53.0506,0.0001777,15.22682785,496.53056166329407,498.9742527586168,1 45712U 20035BH  26032.45343300  .00048789  00000+0  20679-2 0  9995,2 45712  53.0506 187.3894 0001777 100.5600 259.5597 15.22682785313863
STARLINK-1465,45731,53.0544,7.73e-05,15.42993036,436.75469777036596,437.8083614750458,1 45731U 20038B   26032.58334490  .01036233  00000+0  21306-1 0  9992,2 45731  53.0544  35.6126 0000773  95.8954 200.2212 15.42993036  5830
STARLINK-1471,45735,53.0503,0.0003235,15.45717885,427.06732956896303,431.4717215910123,1 45735U 20038F   26032.16084310  .00020028  00000+0  41559-3 0  9991,2 45735  53.0503 316.7065 0003235 106.9278 253.2083 15.45717885311870
STARLINK-1474,45738,53.0234,0.0005357,15.95841759,282.39998074233336,289.5399049208827,1 45738U 20038J   26032.58334490  .00319571  51698-4  77352-3 0  9995,2 45738  53.0234 248.2391 0005357 206.6433 278.8816 15.95841759  6054
STARLINK-1480,45741,53.0541,0.0008914,15.41967247,434.22586068003056,446.38177697183255,1 45741U 20038M   26032.25313488  .00091636  00000+0  21010-2 0  9991,2 45741  53.0541  30.8396 0008914  48.4741 311.7027 15.41967247310843
STARLINK-1500,45744,53.0395,0.0004304,15.3269471,464.82993910894675,470.72290138109383,1 45744U 20038Q   26032.31622111  .00022872  00000+0  72359-3 0  9996,2 45744  53.0395   3.0963 0004304 105.2673 254.8803 15.32694710311235
STARLINK-1504,45746,53.0255,0.0004571,15.50636365,411.7618326352076,417.9719968140489,1 45746U 20038S   26032.17109876  .00028143  00000+0  48870-3 0  9998,2 45746  53.0255 318.0209 0004571  90.8110 269.3421 15.50636365311841
STARLINK-1506,45747,53.0759,0.0004942,15.25169968,486.8807306922499,493.6694692118417,1 45747U 20038T   26032.23603210  .00039159  00000+0  15459-2 0  9992,2 45747  53.0759  10.8342 0004942 115.2474 244.9036 15.25169968311127
STARLINK-1464,45751,53.0553,0.0002089,15.39144209,447.2125700912393,450.0647969718193,1 45751U 20038X   26032.33499359  .00083835  00000+0  21154-2 0  9994,2 45751  53.0553  16.9557 0002089  86.1247 273.9995 15.39144209311046
STARLINK-1477,45754,53.0515,6.18e-05,15.12076252,529.4421935367618,530.2960230917488,1 45754U 20038AA  26032.37377548  .00030704  00000+0  17736-2 0  9994,2 45754  53.0515  17.7393 0000618 331.8391  28.2567 15.12076252311038
STARLINK-1478,45755,53.0546,0.0005149,15.47535367,420.43618197950127,427.44095940219813,1 45755U 20038AB  26032.58334490  .00093666  00000+0  17780-2 0  9992,2 45755  53.0546  11.5057 0005149  82.3020  56.1668 15.47535367  5771
STARLINK-1484,45756,53.0043,0.000371,15.82825493,319.96870868894894,324.94054767706075,1 45756U 20038AC  26032.50002314  .00145616  00000+0  66542-3 0  9996,2 45756  53.0043 241.3584 0003710 183.1520  11.7966 15.82825493  6027
STARLINK-1493,45759,53.0691,0.0001225,15.37668433,452.1691649749764,453.84279500507455,1 45759U 20038AF  26032.50002314  .00599434  00000+0  14936-1 0  9998,2 45759  53.0691  16.8433 0001225  66.0191  28.5469 15.37668433  5728
STARLINK-1494,45760,53.0518,0.0002106,15.67098215,365.7904874060687,368.63162800797454,1 45760U 20038AG  26032.08954213  .00065247  00000+0  59983-3 0  9990,2 45760  53.0518 332.6332 0002106 126.8279 233.2929 15.67098215311641
STARLINK-1502,45764,53.0533,0.0001103,15.29035559,477.93777817658156,479.45039511429604,1 45764U 20038AL  26032.50002314  .00970189  00000+0  31326-1 0  9996,2 45764  53.0533  17.5687 0001103  98.5186 167.3128 15.29035559  5819
STARLINK-1470,45772,53.049,0.0001566,15.24974355,489.7867565270071,491.93812715218974,1 45772U 20038AU  26032.26631870  .00046448  00000+0  18405-2 0  9999,2 45772  53.0490 342.9294 0001566  98.7861 261.3313 15.24974355311513
STARLINK-1482,45773,53.1065,0.000162,15.19083231,507.49434273914085,509.7256487657651,1 45773U 20038AV  26032.50002314  .00046495  00000+0  21904-2 0  9992,2 45773  53.1065 358.7536 0001620  83.4353 133.0834 15.19083231  5820
STARLINK-1496,45780,53.0558,0.0008313,15.41861403,434.94742920502085,446.28428770748997,1 45780U 20038BC  26032.50002314  .00078139  00000+0  18027-2 0  9992,2 45780  53.0558 350.1353 0008313  78.1090  38.3259 15.41861403  5853
STARLINK-1497,45781,53.0245,0.0006037,16.00869109,267.9960154457076,276.0254037903005,1 45781U 20038BD  26031.96627500  .00560033  15084-3  10184-2 0  9999,2 45781  53.0245 263.5303 0006037 179.0237 181.0805 16.00869109312596
STARLINK-1513,45786,53.1001,0.0002338,15.17097179,513.0075132185548,516.2305659426611,1 45786U 20038BJ  26032.50002314  .01392265  00000+0  63717-1 0  9993,2 45786  53.1001 358.8622 0002338  82.5279  94.0830 15.17097179  5720
